{"type":"FeatureCollection","features":[{"type":"Feature","geometry":{"type":"Point","coordinates":[16.673002,48.880215]},"properties":{"id":"77678271","portal_name":"8615620 77678271","label":"77678271 (VUT)","municipality":"Obec A","track":"Trať 1","variety":"Ryzlink rýnský","status":"active","placements":[{"from":"2026-06-01T00:00:00Z","to":null,"lon":16.673002,"lat":48.880215,"elevation_m":183.9,"note":null}],"notes":null}},{"type":"Feature","geometry":{"type":"Point","coordinates":[16.672016,48.879593]},"properties":{"id":"77680921","portal_name":"8615620 77680921","label":"77680921 (VUT)","municipality":"Obec A","track":"Trať 1","variety":"Veltlínské zelené","status":"active","placements":[{"from":"2026-06-01T00:00:00Z","to":null,"lon":16.672016,"lat":48.879593,"elevation_m":201.6,"note":null}],"notes":null}},{"type":"Feature","geometry":{"type":"Point","coordinates":[16.6709,48.878895]},"properties":{"id":"77800065","portal_name":"8615620 77800065","label":"77800065 (VUT)","municipality":"Obec A","track":"Trať 1","variety":null,"status":"active","placements":[{"from":"2026-06-01T00:00:00Z","to":null,"lon":16.6709,"lat":48.878895,"elevation_m":222.4,"note":null}],"notes":null}},{"type":"Feature","geometry":{"type":"Point","coordinates":[16.648304,48.883827]},"properties":{"id":"77799986","portal_name":"8615620 77799986","label":"77799986 (VUT)","municipality":null,"track":null,"variety":null,"status":"active","placements":[{"from":"2026-06-01T00:00:00Z","to":null,"lon":16.648304,"lat":48.883827,"elevation_m":219.2,"note":null}],"notes":null}},{"type":"Feature","geometry":{"type":"Point","coordinates":[16.6761,48.8826]},"properties":{"id":"90000101","portal_name":"8615620 90000101","label":"90000101 (demo)","municipality":"Obec A","track":"Trať 1","variety":"Pálava","status":"active","placements":[{"from":"2026-09-01T00:00:00Z","to":null,"lon":16.6761,"lat":48.8826,"elevation_m":190.2,"note":null}],"notes":null}},{"type":"Feature","geometry":{"type":"Point","coordinates":[16.6598,48.8722]},"properties":{"id":"90000111","portal_name":"8615620 90000111","label":"90000111 (demo)","municipality":"Obec A","track":"Trať 2","variety":"Müller Thurgau","status":"active","placements":[{"from":"2026-09-01T00:00:00Z","to":null,"lon":16.6598,"lat":48.8722,"elevation_m":205,"note":null}],"notes":null}},{"type":"Feature","geometry":{"type":"Point","coordinates":[16.6627,48.8741]},"properties":{"id":"90000112","portal_name":"8615620 90000112","label":"90000112 (demo)","municipality":"Obec A","track":"Trať 2","variety":"Müller Thurgau","status":"active","placements":[{"from":"2026-09-01T00:00:00Z","to":null,"lon":16.6627,"lat":48.8741,"elevation_m":211.4,"note":null}],"notes":null}},{"type":"Feature","geometry":{"type":"Point","coordinates":[16.6571,48.8705]},"properties":{"id":"90000113","portal_name":"8615620 90000113","label":"90000113 (demo)","municipality":"Obec A","track":"Trať 2","variety":"Frankovka","status":"active","placements":[{"from":"2026-09-01T00:00:00Z","to":null,"lon":16.6571,"lat":48.8705,"elevation_m":198.7,"note":null}],"notes":null}},{"type":"Feature","geometry":{"type":"Point","coordinates":[16.7418,48.8512]},"properties":{"id":"90000201","portal_name":"8615620 90000201","label":"90000201 (demo)","municipality":"Obec B","track":"Trať 3","variety":"Ryzlink vlašský","status":"active","placements":[{"from":"2026-09-01T00:00:00Z","to":null,"lon":16.7418,"lat":48.8512,"elevation_m":176.3,"note":null}],"notes":null}},{"type":"Feature","geometry":{"type":"Point","coordinates":[16.7446,48.8534]},"properties":{"id":"90000202","portal_name":"8615620 90000202","label":"90000202 (demo)","municipality":"Obec B","track":"Trať 3","variety":"Ryzlink vlašský","status":"active","placements":[{"from":"2026-09-01T00:00:00Z","to":null,"lon":16.7446,"lat":48.8534,"elevation_m":181.9,"note":null}],"notes":null}},{"type":"Feature","geometry":{"type":"Point","coordinates":[16.7392,48.8497]},"properties":{"id":"90000203","portal_name":"8615620 90000203","label":"90000203 (demo)","municipality":"Obec B","track":"Trať 3","variety":"Sauvignon","status":"inactive","placements":[{"from":"2026-09-01T00:00:00Z","to":"2026-09-20T08:00:00Z","lon":16.7392,"lat":48.8497,"elevation_m":173.5,"note":null}],"notes":null}},{"type":"Feature","geometry":{"type":"Point","coordinates":[16.7512,48.8431]},"properties":{"id":"90000301","portal_name":"8615620 90000301","label":"90000301 (demo)","municipality":"Obec B","track":"Trať 4","variety":"Zweigeltrebe","status":"active","placements":[{"from":"2026-09-01T00:00:00Z","to":null,"lon":16.7512,"lat":48.8431,"elevation_m":230.8,"note":null}],"notes":null}},{"type":"Feature","geometry":{"type":"Point","coordinates":[16.7547,48.8452]},"properties":{"id":"90000302","portal_name":"8615620 90000302","label":"90000302 (demo)","municipality":"Obec B","track":"Trať 4","variety":"Zweigeltrebe","status":"retired","placements":[{"from":"2026-09-01T00:00:00Z","to":"2026-09-15T10:00:00Z","lon":16.7547,"lat":48.8452,"elevation_m":241.2,"note":null}],"notes":null}},{"type":"Feature","geometry":{"type":"Point","coordinates":[16.7486,48.8418]},"properties":{"id":"90000303","portal_name":"8615620 90000303","label":"90000303 (demo)","municipality":"Obec B","track":"Trať 4","variety":"Modrý Portugal","status":"active","placements":[{"from":"2026-09-01T00:00:00Z","to":null,"lon":16.7486,"lat":48.8418,"elevation_m":226,"note":null}],"notes":null}},{"type":"Feature","geometry":{"type":"Point","coordinates":[16.5982,48.9213]},"properties":{"id":"90000401","portal_name":"8615620 90000401","label":"90000401 (demo)","municipality":"Obec C","track":"Trať 5","variety":"Tramín červený","status":"active","placements":[{"from":"2026-09-01T00:00:00Z","to":null,"lon":16.5982,"lat":48.9213,"elevation_m":258.4,"note":null}],"notes":null}},{"type":"Feature","geometry":{"type":"Point","coordinates":[16.6011,48.9236]},"properties":{"id":"90000402","portal_name":"8615620 90000402","label":"90000402 (demo)","municipality":"Obec C","track":"Trať 5","variety":null,"status":"active","placements":[{"from":"2026-09-01T00:00:00Z","to":null,"lon":16.6011,"lat":48.9236,"elevation_m":262.9,"note":null}],"notes":null}},{"type":"Feature","geometry":{"type":"Point","coordinates":[16.5915,48.9164]},"properties":{"id":"90000411","portal_name":"8615620 90000411","label":"90000411 (demo)","municipality":"Obec C","track":"Trať 6","variety":"Chardonnay","status":"active","placements":[{"from":"2026-09-01T00:00:00Z","to":null,"lon":16.5915,"lat":48.9164,"elevation_m":247.1,"note":null}],"notes":null}},{"type":"Feature","geometry":{"type":"Point","coordinates":[16.5943,48.9147]},"properties":{"id":"90000412","portal_name":"8615620 90000412","label":"90000412 (demo)","municipality":"Obec C","track":"Trať 6","variety":"Chardonnay","status":"active","placements":[{"from":"2026-09-01T00:00:00Z","to":null,"lon":16.5943,"lat":48.9147,"elevation_m":244.6,"note":null}],"notes":null}},{"type":"Feature","geometry":{"type":"Point","coordinates":[16.6074,48.9258]},"properties":{"id":"90000421","portal_name":"8615620 90000421","label":"90000421 (demo)","municipality":"Obec C","track":null,"variety":null,"status":"active","placements":[{"from":"2026-09-01T00:00:00Z","to":null,"lon":16.6074,"lat":48.9258,"elevation_m":266,"note":null}],"notes":null}},{"type":"Feature","geometry":{"type":"Point","coordinates":[16.7005,48.9003]},"properties":{"id":"90000501","portal_name":"8615620 90000501","label":"90000501 (demo)","municipality":null,"track":null,"variety":"Neuburské","status":"active","placements":[{"from":"2026-09-01T00:00:00Z","to":null,"lon":16.7005,"lat":48.9003,"elevation_m":195.5,"note":null}],"notes":null}}]}
