{
  "type": "FeatureCollection",
  "features": [
    {
      "type": "Feature",
      "geometry": {
        "type": "Point",
        "coordinates": [
          16.673002,
          48.880215
        ]
      },
      "properties": {
        "id": "77678271",
        "portal_name": "8615620 77678271",
        "label": "77678271 (VUT)",
        "municipality": "Dolní Věstonice",
        "track": "Nad Silnicí",
        "variety": null,
        "status": "active",
        "placements": [
          {
            "from": "2025-12-01T00:00:00Z",
            "to": null,
            "lon": 16.673002,
            "lat": 48.880215,
            "elevation_m": 183.939606,
            "note": null
          }
        ],
        "notes": null
      }
    },
    {
      "type": "Feature",
      "geometry": {
        "type": "Point",
        "coordinates": [
          16.672016,
          48.879593
        ]
      },
      "properties": {
        "id": "77680921",
        "portal_name": "8615620 77680921",
        "label": "77680921 (VUT)",
        "municipality": "Dolní Věstonice",
        "track": "Nad Silnicí",
        "variety": null,
        "status": "active",
        "placements": [
          {
            "from": "2025-12-01T00:00:00Z",
            "to": null,
            "lon": 16.672016,
            "lat": 48.879593,
            "elevation_m": 201.622162,
            "note": null
          }
        ],
        "notes": null
      }
    },
    {
      "type": "Feature",
      "geometry": {
        "type": "Point",
        "coordinates": [
          16.6709,
          48.878895
        ]
      },
      "properties": {
        "id": "77800065",
        "portal_name": "8615620 77800065",
        "label": "77800065 (VUT)",
        "municipality": "Dolní Věstonice",
        "track": "Nad Silnicí",
        "variety": null,
        "status": "active",
        "placements": [
          {
            "from": "2025-12-01T00:00:00Z",
            "to": null,
            "lon": 16.6709,
            "lat": 48.878895,
            "elevation_m": 222.397003,
            "note": null
          }
        ],
        "notes": null
      }
    },
    {
      "type": "Feature",
      "geometry": {
        "type": "Point",
        "coordinates": [
          16.648304,
          48.883827
        ]
      },
      "properties": {
        "id": "77799986",
        "portal_name": "8615620 77799986",
        "label": "77799986 (VUT)",
        "municipality": "Dolní Věstonice",
        "track": "U Kapličky",
        "variety": null,
        "status": "active",
        "placements": [
          {
            "from": "2025-12-01T00:00:00Z",
            "to": null,
            "lon": 16.648304,
            "lat": 48.883827,
            "elevation_m": 219.241791,
            "note": null
          }
        ],
        "notes": null
      }
    }
  ]
}
